start=new Date('2021-09-10T00:00:00.000Z').valueOf();
sats=[{"RA_OF_ASC_NODE":"196.9197","MEAN_MOTION":"15.06390679","OBJECT_ID":"2020-012AD","TIME_SYSTEM":"UTC","GP_ID":"184407454","FILE":"3111873","ECCENTRICITY":"0.00020970","MEAN_ANOMALY":"306.4007","APOAPSIS":"548.694","SITE":"AFETR","NORAD_CAT_ID":"45205","REV_AT_EPOCH":"8768","CLASSIFICATION_TYPE":"U","EPHEMERIS_TYPE":"0","DECAY_DATE":null,"EPOCH":"2021-09-09T21:29:26.447136","COUNTRY_CODE":"US","RCS_SIZE":"LARGE","INCLINATION":"53.0551","MEAN_MOTION_DDOT":"0.0000000000000","LAUNCH_DATE":"2020-02-17","BSTAR":"-0.00004245800000","REF_FRAME":"TEME","TLE_LINE1":"1 45205U 20012AD  21252.89544499 -.00000914  00000-0 -42458-4 0  9998","OBJECT_NAME":"STARLINK-1208","CENTER_NAME":"EARTH","ARG_OF_PERICENTER":"53.7175","MEAN_ELEMENT_THEORY":"SGP4","MEAN_MOTION_DOT":"-0.00000914","OBJECT_TYPE":"PAYLOAD","ELEMENT_SET_NO":"999","PERIAPSIS":"545.790","TLE_LINE2":"2 45205  53.0551 196.9197 0002097  53.7175 306.4007 15.06390679 87680","SEMIMAJOR_AXIS":"6925.377","PERIOD":"95.593"},{"CLASSIFICATION_TYPE":"U","REV_AT_EPOCH":"8697","EPHEMERIS_TYPE":"0","DECAY_DATE":null,"SITE":"AFETR","NORAD_CAT_ID":"45206","INCLINATION":"53.0548","EPOCH":"2021-09-09T18:58:09.105888","COUNTRY_CODE":"US","RCS_SIZE":"LARGE","TIME_SYSTEM":"UTC","OBJECT_ID":"2020-012AE","RA_OF_ASC_NODE":"177.3977","MEAN_MOTION":"15.06403031","ECCENTRICITY":"0.00018900","APOAPSIS":"548.513","MEAN_ANOMALY":"297.8954","GP_ID":"184407694","FILE":"3111873","ELEMENT_SET_NO":"999","ARG_OF_PERICENTER":"62.2226","MEAN_ELEMENT_THEORY":"SGP4","MEAN_MOTION_DOT":"0.00000802","OBJECT_TYPE":"PAYLOAD","TLE_LINE2":"2 45206  53.0548 177.3977 0001890  62.2226 297.8954 15.06403031 86970","SEMIMAJOR_AXIS":"6925.339","PERIOD":"95.592","PERIAPSIS":"545.895","LAUNCH_DATE":"2020-02-17","MEAN_MOTION_DDOT":"0.0000000000000","TLE_LINE1":"1 45206U 20012AE  21252.79038317  .00000802  00000-0  72711-4 0  9994","OBJECT_NAME":"STARLINK-1209","CENTER_NAME":"EARTH","BSTAR":"0.00007271100000","REF_FRAME":"TEME"},{"ECCENTRICITY":"0.00014310","APOAPSIS":"548.214","MEAN_ANOMALY":"302.1013","GP_ID":"184405953","FILE":"3111873","OBJECT_ID":"2020-012AF","TIME_SYSTEM":"UTC","RA_OF_ASC_NODE":"197.7133","MEAN_MOTION":"15.06397013","INCLINATION":"53.0536","EPOCH":"2021-09-09T17:14:39.965568","COUNTRY_CODE":"US","RCS_SIZE":"LARGE","CLASSIFICATION_TYPE":"U","REV_AT_EPOCH":"8763","EPHEMERIS_TYPE":"0","DECAY_DATE":null,"SITE":"AFETR","NORAD_CAT_ID":"45207","TLE_LINE1":"1 45207U 20012AF  21252.71851812  .00001154  00000-0  96373-4 0  9991","OBJECT_NAME":"STARLINK-1210","CENTER_NAME":"EARTH","BSTAR":"0.00009637300000","REF_FRAME":"TEME","LAUNCH_DATE":"2020-02-17","MEAN_MOTION_DDOT":"0.0000000000000","TLE_LINE2":"2 45207  53.0536 197.7133 0001431  58.0115 302.1013 15.06397013 87631","PERIOD":"95.592","SEMIMAJOR_AXIS":"6925.358","PERIAPSIS":"546.232","ELEMENT_SET_NO":"999","ARG_OF_PERICENTER":"58.0115","MEAN_MOTION_DOT":"0.00001154","MEAN_ELEMENT_THEORY":"SGP4","OBJECT_TYPE":"PAYLOAD"},{"APOAPSIS":"550.863","MEAN_ANOMALY":"308.2565","ECCENTRICITY":"0.00016820","FILE":"3111873","GP_ID":"184406203","TIME_SYSTEM":"UTC","OBJECT_ID":"2020-012AG","MEAN_MOTION":"15.05589804","RA_OF_ASC_NODE":"197.0899","INCLINATION":"52.9986","RCS_SIZE":"LARGE","EPOCH":"2021-09-09T20:36:35.723520","COUNTRY_CODE":"US","EPHEMERIS_TYPE":"0","DECAY_DATE":null,"CLASSIFICATION_TYPE":"U","REV_AT_EPOCH":"8757","NORAD_CAT_ID":"45208","SITE":"AFETR","CENTER_NAME":"EARTH","OBJECT_NAME":"STARLINK-1211","TLE_LINE1":"1 45208U 20012AG  21252.85874680  .00001479  00000-0  12062-3 0  9997","REF_FRAME":"TEME","BSTAR":"0.00012062000000","LAUNCH_DATE":"2020-02-17","MEAN_MOTION_DDOT":"0.0000000000000","SEMIMAJOR_AXIS":"6927.833","PERIOD":"95.644","TLE_LINE2":"2 45208  52.9986 197.0899 0001682  51.8574 308.2565 15.05589804 87571","PERIAPSIS":"548.533","ELEMENT_SET_NO":"999","MEAN_ELEMENT_THEORY":"SGP4","MEAN_MOTION_DOT":"0.00001479","OBJECT_TYPE":"PAYLOAD","ARG_OF_PERICENTER":"51.8574"},{"COUNTRY_CODE":"US","EPOCH":"2021-09-09T06:09:01.733184","RCS_SIZE":"LARGE","INCLINATION":"53.0560","SITE":"AFETR","NORAD_CAT_ID":"45209","CLASSIFICATION_TYPE":"U","REV_AT_EPOCH":"8800","DECAY_DATE":null,"EPHEMERIS_TYPE":"0","GP_ID":"184379283","FILE":"3111654","ECCENTRICITY":"0.00070140","APOAPSIS":"364.430","MEAN_ANOMALY":"34.9876","MEAN_MOTION":"15.69718618","RA_OF_ASC_NODE":"164.5967","TIME_SYSTEM":"UTC","OBJECT_ID":"2020-012AH","PERIAPSIS":"354.978","TLE_LINE2":"2 45209  53.0560 164.5967 0007014 325.0679  34.9876 15.69718618 88008","SEMIMAJOR_AXIS":"6737.839","PERIOD":"91.736","ARG_OF_PERICENTER":"325.0679","OBJECT_TYPE":"PAYLOAD","MEAN_MOTION_DOT":"-0.00001037","MEAN_ELEMENT_THEORY":"SGP4","ELEMENT_SET_NO":"999","BSTAR":"-0.00000361350000","REF_FRAME":"TEME","TLE_LINE1":"1 45209U 20012AH  21252.25627006 -.00001037  00000-0 -36135-5 0  9991","OBJECT_NAME":"STARLINK-1218","CENTER_NAME":"EARTH","MEAN_MOTION_DDOT":"0.0000000000000","LAUNCH_DATE":"2020-02-17"},{"NORAD_CAT_ID":"45210","SITE":"AFETR","EPHEMERIS_TYPE":"0","DECAY_DATE":null,"CLASSIFICATION_TYPE":"U","REV_AT_EPOCH":"8754","RCS_SIZE":"LARGE","EPOCH":"2021-09-09T20:31:02.319744","COUNTRY_CODE":"US","INCLINATION":"53.0542","MEAN_MOTION":"15.06402102","RA_OF_ASC_NODE":"197.1123","TIME_SYSTEM":"UTC","OBJECT_ID":"2020-012AJ","FILE":"3111873","GP_ID":"184407195","APOAPSIS":"548.334","MEAN_ANOMALY":"303.7880","ECCENTRICITY":"0.00016270","MEAN_ELEMENT_THEORY":"SGP4","MEAN_MOTION_DOT":"-0.00000235","OBJECT_TYPE":"PAYLOAD","ARG_OF_PERICENTER":"56.3264","ELEMENT_SET_NO":"999","PERIAPSIS":"546.080","SEMIMAJOR_AXIS":"6925.342","PERIOD":"95.592","TLE_LINE2":"2 45210  53.0542 197.1123 0001627  56.3264 303.7880 15.06402102 87543","MEAN_MOTION_DDOT":"0.0000000000000","LAUNCH_DATE":"2020-02-17","REF_FRAME":"TEME","BSTAR":"0.00000311370000","OBJECT_NAME":"STARLINK-1219","CENTER_NAME":"EARTH","TLE_LINE1":"1 45210U 20012AJ  21252.85488796 -.00000235  00000-0  31137-5 0  9995"},{"NORAD_CAT_ID":"45212","SITE":"AFETR","EPHEMERIS_TYPE":"0","DECAY_DATE":null,"CLASSIFICATION_TYPE":"U","REV_AT_EPOCH":"8753","RCS_SIZE":"LARGE","EPOCH":"2021-09-09T08:34:29.762688","COUNTRY_CODE":"US","INCLINATION":"53.0547","RA_OF_ASC_NODE":"199.3442","MEAN_MOTION":"15.06395713","TIME_SYSTEM":"UTC","OBJECT_ID":"2020-012AL","FILE":"3111654","GP_ID":"184378780","MEAN_ANOMALY":"312.3754","APOAPSIS":"548.248","ECCENTRICITY":"0.00014750","MEAN_ELEMENT_THEORY":"SGP4","MEAN_MOTION_DOT":"0.00001327","OBJECT_TYPE":"PAYLOAD","ARG_OF_PERICENTER":"47.7360","ELEMENT_SET_NO":"999","PERIAPSIS":"546.205","SEMIMAJOR_AXIS":"6925.362","PERIOD":"95.592","TLE_LINE2":"2 45212  53.0547 199.3442 0001475  47.7360 312.3754 15.06395713 87534","MEAN_MOTION_DDOT":"0.0000000000000","LAUNCH_DATE":"2020-02-17","REF_FRAME":"TEME","BSTAR":"0.00010796000000","CENTER_NAME":"EARTH","OBJECT_NAME":"STARLINK-1231","TLE_LINE1":"1 45212U 20012AL  21252.35728892  .00001327  00000-0  10796-3 0  9994"},{"NORAD_CAT_ID":"45213","SITE":"AFETR","DECAY_DATE":null,"EPHEMERIS_TYPE":"0","CLASSIFICATION_TYPE":"U","REV_AT_EPOCH":"8766","RCS_SIZE":"LARGE","COUNTRY_CODE":"US","EPOCH":"2021-09-09T21:23:15.715104","INCLINATION":"53.0552","MEAN_MOTION":"15.06504954","RA_OF_ASC_NODE":"196.9434","TIME_SYSTEM":"UTC","OBJECT_ID":"2020-012AM","FILE":"3111873","GP_ID":"184406703","APOAPSIS":"547.983","MEAN_ANOMALY":"295.0682","ECCENTRICITY":"0.00015760","OBJECT_TYPE":"PAYLOAD","MEAN_MOTION_DOT":"0.00001180","MEAN_ELEMENT_THEORY":"SGP4","ARG_OF_PERICENTER":"65.0470","ELEMENT_SET_NO":"999","PERIAPSIS":"545.801","SEMIMAJOR_AXIS":"6925.027","PERIOD":"95.585","TLE_LINE2":"2 45213  53.0552 196.9434 0001576  65.0470 295.0682 15.06504954 87662","MEAN_MOTION_DDOT":"0.0000000000000","LAUNCH_DATE":"2020-02-17","REF_FRAME":"TEME","BSTAR":"0.00009787000000","OBJECT_NAME":"STARLINK-1232","CENTER_NAME":"EARTH","TLE_LINE1":"1 45213U 20012AM  21252.89115411  .00001180  00000-0  97870-4 0  9997"},{"EPOCH":"2021-09-09T20:41:39.619968","COUNTRY_CODE":"US","RCS_SIZE":"LARGE","INCLINATION":"53.0528","SITE":"AFETR","NORAD_CAT_ID":"45214","CLASSIFICATION_TYPE":"U","REV_AT_EPOCH":"8765","EPHEMERIS_TYPE":"0","DECAY_DATE":null,"GP_ID":"184407455","FILE":"3111873","ECCENTRICITY":"0.00018480","MEAN_ANOMALY":"300.6093","APOAPSIS":"548.487","RA_OF_ASC_NODE":"197.0745","MEAN_MOTION":"15.06401957","TIME_SYSTEM":"UTC","OBJECT_ID":"2020-012AN","PERIAPSIS":"545.928","TLE_LINE2":"2 45214  53.0528 197.0745 0001848  59.5078 300.6093 15.06401957 87654","SEMIMAJOR_AXIS":"6925.343","PERIOD":"95.592","ARG_OF_PERICENTER":"59.5078","MEAN_ELEMENT_THEORY":"SGP4","MEAN_MOTION_DOT":"0.00001262","OBJECT_TYPE":"PAYLOAD","ELEMENT_SET_NO":"999","BSTAR":"0.00010360000000","REF_FRAME":"TEME","TLE_LINE1":"1 45214U 20012AN  21252.86226412  .00001262  00000-0  10360-3 0  9998","CENTER_NAME":"EARTH","OBJECT_NAME":"STARLINK-1233","MEAN_MOTION_DDOT":"0.0000000000000","LAUNCH_DATE":"2020-02-17"},{"BSTAR":"0.00021060000000","REF_FRAME":"TEME","TLE_LINE1":"1 45215U 20012AP  21252.85858345  .00002857  00000-0  21060-3 0  9994","OBJECT_NAME":"STARLINK-1245","CENTER_NAME":"EARTH","MEAN_MOTION_DDOT":"0.0000000000000","LAUNCH_DATE":"2020-02-17","PERIAPSIS":"546.096","TLE_LINE2":"2 45215  53.0534 197.0836 0001600  52.6042 307.5092 15.06403192 87595","PERIOD":"95.592","SEMIMAJOR_AXIS":"6925.339","ARG_OF_PERICENTER":"52.6042","MEAN_ELEMENT_THEORY":"SGP4","MEAN_MOTION_DOT":"0.00002857","OBJECT_TYPE":"PAYLOAD","ELEMENT_SET_NO":"999","GP_ID":"184407695","FILE":"3111873","ECCENTRICITY":"0.00016000","MEAN_ANOMALY":"307.5092","APOAPSIS":"548.312","RA_OF_ASC_NODE":"197.0836","MEAN_MOTION":"15.06403192","TIME_SYSTEM":"UTC","OBJECT_ID":"2020-012AP","EPOCH":"2021-09-09T20:36:21.610080","COUNTRY_CODE":"US","RCS_SIZE":"LARGE","INCLINATION":"53.0534","SITE":"AFETR","NORAD_CAT_ID":"45215","REV_AT_EPOCH":"8759","CLASSIFICATION_TYPE":"U","EPHEMERIS_TYPE":"0","DECAY_DATE":null}];
